{
  "type": "FeatureCollection",
  "features": [
    {
      "type": "Feature",
      "properties": {
        "norad_id": 66898,
        "name": "STARLINK-36065",
        "group": "last-30-days",
        "lat": -27.598766563616223,
        "lon": -150.303037283214,
        "alt_km": 398.98588449949693,
        "timestamp": "2025-12-26T05:31:11.218464+00:00",
        "meta_object_name": "STARLINK-36065",
        "meta_object_id": "2025-283W",
        "meta_epoch": "2025-12-25T22:00:01.999584",
        "meta_mean_motion": 15.58897514,
        "meta_eccentricity": 0.00014285,
        "meta_inclination": 53.1592,
        "meta_ra_of_asc_node": 8.1405,
        "meta_arg_of_pericenter": 98.0344,
        "meta_mean_anomaly": 158.7483,
        "meta_ephemeris_type": 0,
        "meta_classification_type": "U",
        "meta_norad_cat_id": 66898,
        "meta_element_set_no": 999,
        "meta_rev_at_epoch": 454,
        "meta_bstar": -0.02792737,
        "meta_mean_motion_dot": -0.01942729,
        "meta_mean_motion_ddot": 0,
        "tle_line1": "1 66898U 25283W   25359.91668981 -.01942729  00000+0 -27927-1 0  9992",
        "tle_line2": "2 66898  53.1592   8.1405 0001428  98.0344 158.7483 15.58897514  4547"
      },
      "geometry": {
        "type": "Point",
        "coordinates": [
          -150.303037283214,
          -27.598766563616223
        ]
      }
    },
    {
      "type": "Feature",
      "properties": {
        "norad_id": 66899,
        "name": "STARLINK-36064",
        "group": "last-30-days",
        "lat": -28.99960652812895,
        "lon": -148.82570436880994,
        "alt_km": 399.1078012378948,
        "timestamp": "2025-12-26T05:31:11.218474+00:00",
        "meta_object_name": "STARLINK-36064",
        "meta_object_id": "2025-283X",
        "meta_epoch": "2025-12-25T22:00:01.999584",
        "meta_mean_motion": 15.58898641,
        "meta_eccentricity": 0.00013745,
        "meta_inclination": 53.1593,
        "meta_ra_of_asc_node": 8.1369,
        "meta_arg_of_pericenter": 96.803,
        "meta_mean_anomaly": 161.8957,
        "meta_ephemeris_type": 0,
        "meta_classification_type": "U",
        "meta_norad_cat_id": 66899,
        "meta_element_set_no": 999,
        "meta_rev_at_epoch": 448,
        "meta_bstar": -0.027948958,
        "meta_mean_motion_dot": -0.01944087,
        "meta_mean_motion_ddot": 0,
        "tle_line1": "1 66899U 25283X   25359.91668981 -.01944087  00000+0 -27949-1 0  9996",
        "tle_line2": "2 66899  53.1593   8.1369 0001374  96.8030 161.8957 15.58898641  4482"
      },
      "geometry": {
        "type": "Point",
        "coordinates": [
          -148.82570436880994,
          -28.99960652812895
        ]
      }
    },
    {
      "type": "Feature",
      "properties": {
        "norad_id": 66900,
        "name": "STARLINK-36074",
        "group": "last-30-days",
        "lat": -30.387198582972836,
        "lon": -147.30477856672226,
        "alt_km": 399.16264550249343,
        "timestamp": "2025-12-26T05:31:11.218484+00:00",
        "meta_object_name": "STARLINK-36074",
        "meta_object_id": "2025-283Y",
        "meta_epoch": "2025-12-25T22:00:01.999584",
        "meta_mean_motion": 15.58891521,
        "meta_eccentricity": 0.00014547,
        "meta_inclination": 53.1593,
        "meta_ra_of_asc_node": 8.1325,
        "meta_arg_of_pericenter": 103.8909,
        "meta_mean_anomaly": 156.7317,
        "meta_ephemeris_type": 0,
        "meta_classification_type": "U",
        "meta_norad_cat_id": 66900,
        "meta_element_set_no": 999,
        "meta_rev_at_epoch": 454,
        "meta_bstar": -0.027832206,
        "meta_mean_motion_dot": -0.01936529,
        "meta_mean_motion_ddot": 0,
        "tle_line1": "1 66900U 25283Y   25359.91668981 -.01936529  00000+0 -27832-1 0  9992",
        "tle_line2": "2 66900  53.1593   8.1325 0001454 103.8909 156.7317 15.58891521  4540"
      },
      "geometry": {
        "type": "Point",
        "coordinates": [
          -147.30477856672226,
          -30.387198582972836
        ]
      }
    },
    {
      "type": "Feature",
      "properties": {
        "norad_id": 66901,
        "name": "STARLINK-36043",
        "group": "last-30-days",
        "lat": -31.75310116120034,
        "lon": -145.74436153661583,
        "alt_km": 399.31856062128554,
        "timestamp": "2025-12-26T05:31:11.218494+00:00",
        "meta_object_name": "STARLINK-36043",
        "meta_object_id": "2025-283Z",
        "meta_epoch": "2025-12-25T22:00:01.999584",
        "meta_mean_motion": 15.58894357,
        "meta_eccentricity": 0.00014815,
        "meta_inclination": 53.1593,
        "meta_ra_of_asc_node": 8.128,
        "meta_arg_of_pericenter": 101.4103,
        "meta_mean_anomaly": 161.1266,
        "meta_ephemeris_type": 0,
        "meta_classification_type": "U",
        "meta_norad_cat_id": 66901,
        "meta_element_set_no": 999,
        "meta_rev_at_epoch": 454,
        "meta_bstar": -0.02788125,
        "meta_mean_motion_dot": -0.01939736,
        "meta_mean_motion_ddot": 0,
        "tle_line1": "1 66901U 25283Z   25359.91668981 -.01939736  00000+0 -27881-1 0  9990",
        "tle_line2": "2 66901  53.1593   8.1280 0001481 101.4103 161.1266 15.58894357  4544"
      },
      "geometry": {
        "type": "Point",
        "coordinates": [
          -145.74436153661583,
          -31.75310116120034
        ]
      }
    },
    {
      "type": "Feature",
      "properties": {
        "norad_id": 66902,
        "name": "STARLINK-35983",
        "group": "last-30-days",
        "lat": -33.099161140934555,
        "lon": -144.13690391612943,
        "alt_km": 399.4024043490708,
        "timestamp": "2025-12-26T05:31:11.218504+00:00",
        "meta_object_name": "STARLINK-35983",
        "meta_object_id": "2025-283AA",
        "meta_epoch": "2025-12-25T22:00:01.999584",
        "meta_mean_motion": 15.588964,
        "meta_eccentricity": 0.00013857,
        "meta_inclination": 53.1594,
        "meta_ra_of_asc_node": 8.1243,
        "meta_arg_of_pericenter": 101.1335,
        "meta_mean_anomaly": 163.3202,
        "meta_ephemeris_type": 0,
        "meta_classification_type": "U",
        "meta_norad_cat_id": 66902,
        "meta_element_set_no": 999,
        "meta_rev_at_epoch": 454,
        "meta_bstar": -0.027958435,
        "meta_mean_motion_dot": -0.01944527,
        "meta_mean_motion_ddot": 0,
        "tle_line1": "1 66902U 25283AA  25359.91668981 -.01944527  00000+0 -27958-1 0  9990",
        "tle_line2": "2 66902  53.1594   8.1243 0001385 101.1335 163.3202 15.58896400  4547"
      },
      "geometry": {
        "type": "Point",
        "coordinates": [
          -144.13690391612943,
          -33.099161140934555
        ]
      }
    },
    {
      "type": "Feature",
      "properties": {
        "norad_id": 66903,
        "name": "STARLINK-36077",
        "group": "last-30-days",
        "lat": -34.42424123929637,
        "lon": -142.47878057958397,
        "alt_km": 399.5201518034164,
        "timestamp": "2025-12-26T05:31:11.218514+00:00",
        "meta_object_name": "STARLINK-36077",
        "meta_object_id": "2025-283AB",
        "meta_epoch": "2025-12-25T22:00:01.999584",
        "meta_mean_motion": 15.58897569,
        "meta_eccentricity": 0.00013874,
        "meta_inclination": 53.1592,
        "meta_ra_of_asc_node": 8.1207,
        "meta_arg_of_pericenter": 99.9829,
        "meta_mean_anomaly": 166.3874,
        "meta_ephemeris_type": 0,
        "meta_classification_type": "U",
        "meta_norad_cat_id": 66903,
        "meta_element_set_no": 999,
        "meta_rev_at_epoch": 454,
        "meta_bstar": -0.027993468,
        "meta_mean_motion_dot": -0.01946748,
        "meta_mean_motion_ddot": 0,
        "tle_line1": "1 66903U 25283AB  25359.91668981 -.01946748  00000+0 -27993-1 0  9997",
        "tle_line2": "2 66903  53.1592   8.1207 0001387  99.9829 166.3874 15.58897569  4545"
      },
      "geometry": {
        "type": "Point",
        "coordinates": [
          -142.47878057958397,
          -34.42424123929637
        ]
      }
    },
    {
      "type": "Feature",
      "properties": {
        "norad_id": 66904,
        "name": "STARLINK-36059",
        "group": "last-30-days",
        "lat": -35.725377171554214,
        "lon": -140.76934868626577,
        "alt_km": 399.6031891589,
        "timestamp": "2025-12-26T05:31:11.218524+00:00",
        "meta_object_name": "STARLINK-36059",
        "meta_object_id": "2025-283AC",
        "meta_epoch": "2025-12-25T22:00:01.999584",
        "meta_mean_motion": 15.58885209,
        "meta_eccentricity": 0.0001434,
        "meta_inclination": 53.1585,
        "meta_ra_of_asc_node": 8.1157,
        "meta_arg_of_pericenter": 100.9419,
        "meta_mean_anomaly": 167.3472,
        "meta_ephemeris_type": 0,
        "meta_classification_type": "U",
        "meta_norad_cat_id": 66904,
        "meta_element_set_no": 999,
        "meta_rev_at_epoch": 454,
        "meta_bstar": -0.027608236,
        "meta_mean_motion_dot": -0.01922374,
        "meta_mean_motion_ddot": 0,
        "tle_line1": "1 66904U 25283AC  25359.91668981 -.01922374  00000+0 -27608-1 0  9990",
        "tle_line2": "2 66904  53.1585   8.1157 0001434 100.9419 167.3472 15.58885209  4546"
      },
      "geometry": {
        "type": "Point",
        "coordinates": [
          -140.76934868626577,
          -35.725377171554214
        ]
      }
    }
  ]
}